1 29155U 06018A   09271.30985718 -.00000095  00000-0  10000-3 0  7646
2 29155 000.1316 123.1900 0003427 076.2000 173.8697 01.00272080 12297